SL-12 R/B(2)            
1 23330U 94069D   26060.21947185 -.00000285  00000+0  00000+0 0  9994
2 23330  14.5145 350.1662 0020439 151.6389  26.7111  1.00107830114573
DFH 3-1                 
1 23415U 94080A   26064.60903481 -.00000255  00000+0  00000+0 0  9996
2 23415  13.7371 345.3356 0097136  19.4292 147.1883  1.00961919134625
LUCH                    
1 23426U 94082A   26064.70728482 -.00000301  00000+0  00000+0 0  9999
2 23426  14.7551 355.4012 0004848 231.2051 128.7509  1.00185644114221
SL-12 R/B(2)            
1 23429U 94082D   26064.90534784 -.00000056  00000+0  00000+0 0  9991
2 23429  14.5857 354.8926 0026372 137.6289  53.3222  1.00801725114855
RADUGA 32               
1 23448U 94087A   26064.82376539 -.00000159  00000+0  00000+0 0  9994
2 23448  14.3352 351.7555 0008703 269.6707 278.3598  1.00277780131848
SL-12 R/B(2)            
1 23451U 94087D   26064.87942267  .00000077  00000+0  00000+0 0  9998
2 23451  14.3569 351.7686 0008042 136.7398  46.9076  1.00059922 46248
UFO 4 (USA 108)         
1 23467U 95003A   26065.11651473 -.00000025  00000+0  00000+0 0  9992
2 23467   9.6727  13.5636 0003592 333.1514  31.3587  1.00273177113929
HIMAWARI-5 AKM          
1 23524U 95011D   26064.41011794 -.00000005  00000+0  00000+0 0  9991
2 23524  13.6512 348.9919 0220797  12.1190 154.6892  1.01255612 46031
TITAN 4 CENTAUR R/B     
1 23568U 95022B   26064.96461873  .00000057  00000+0  00000+0 0  9994
2 23568  18.2464   7.2066 0009850 337.3901  22.5547  1.00552517 24861
SL-6 R/B(2)             
1 23587U 95026D   26064.79541337 -.00000537  00000+0  00000+0 0  9998
2 23587  66.6569 213.6172 6460721  33.8247 354.0405  2.03321142228483
TDRS 7                  
1 23613U 95035B   26064.70125711 -.00000243  00000+0  00000+0 0  9997
2 23613  13.4200 348.8997 0008223  47.6107 108.4062  1.00276158112213
IUS R/B(2)              
1 23615U 95035D   26061.60461296  .00000073  00000+0  00000+0 0  9996
2 23615  15.7347 342.6195 0009001 182.9056  40.1702  1.00484128112339
TITAN 34D TRANSTAGE DEB 
1 23619U 88077N   26063.36566111 -.00000038  00000+0  78070-2 0  9992
2 23619  26.5609 172.0977 7348605 179.3544 182.9806  2.01464767  8403
ARIANE 42L+3 R/B        
1 23637U 95040B   26064.71872573 -.00000068  00000+0  10978-2 0  9998
2 23637   4.8000  13.1016 7209965 299.3323 322.1618  2.18803536244319
KOREASAT 1              
1 23639U 95041A   26064.54949455 -.00000017  00000+0  00000+0 0  9992
2 23639  14.7055 359.4033 0005453 304.3962 247.6383  0.99672266111494
MOLNIYA 3-47            
1 23642U 95042A   26053.63697335 -.00000757  00000+0  00000+0 0  9993
2 23642  64.9301 280.3410 6750084 270.8113  18.7209  2.01977663224200
SL-6 R/B(2)             
1 23645U 95042D   26059.66284560 -.00001210  00000+0  00000+0 0  9992
2 23645  64.8654 326.9177 7038063 272.1884  16.0008  1.99222977219767
