[{"OBJECT_NAME":"SL-12 R/B(2)","OBJECT_ID":"1994-069D","EPOCH":"2026-03-01T05:16:02.367840","MEAN_MOTION":1.0010783,"ECCENTRICITY":0.0020439,"INCLINATION":14.5145,"RA_OF_ASC_NODE":350.1662,"ARG_OF_PERICENTER":151.6389,"MEAN_ANOMALY":26.7111,"EPHEMERIS_TYPE":0,"CLASSIFICATION_TYPE":"U","NORAD_CAT_ID":23330,"ELEMENT_SET_NO":999,"REV_AT_EPOCH":11457,"BSTAR":0,"MEAN_MOTION_DOT":-2.85e-6,"MEAN_MOTION_DDOT":0},{"OBJECT_NAME":"DFH 3-1","OBJECT_ID":"1994-080A","EPOCH":"2026-03-05T14:37:00.607584","MEAN_MOTION":1.00961919,"ECCENTRICITY":0.0097136,"INCLINATION":13.7371,"RA_OF_ASC_NODE":345.3356,"ARG_OF_PERICENTER":19.4292,"MEAN_ANOMALY":147.1883,"EPHEMERIS_TYPE":0,"CLASSIFICATION_TYPE":"U","NORAD_CAT_ID":23415,"ELEMENT_SET_NO":999,"REV_AT_EPOCH":13462,"BSTAR":0,"MEAN_MOTION_DOT":-2.55e-6,"MEAN_MOTION_DDOT":0},{"OBJECT_NAME":"LUCH","OBJECT_ID":"1994-082A","EPOCH":"2026-03-05T16:58:29.408448","MEAN_MOTION":1.00185644,"ECCENTRICITY":0.00048485,"INCLINATION":14.7551,"RA_OF_ASC_NODE":355.4012,"ARG_OF_PERICENTER":231.2051,"MEAN_ANOMALY":128.7509,"EPHEMERIS_TYPE":0,"CLASSIFICATION_TYPE":"U","NORAD_CAT_ID":23426,"ELEMENT_SET_NO":999,"REV_AT_EPOCH":11422,"BSTAR":0,"MEAN_MOTION_DOT":-3.01e-6,"MEAN_MOTION_DDOT":0},{"OBJECT_NAME":"SL-12 R/B(2)","OBJECT_ID":"1994-082D","EPOCH":"2026-03-05T21:43:42.053376","MEAN_MOTION":1.00801725,"ECCENTRICITY":0.00263727,"INCLINATION":14.5857,"RA_OF_ASC_NODE":354.8926,"ARG_OF_PERICENTER":137.6289,"MEAN_ANOMALY":53.3222,"EPHEMERIS_TYPE":0,"CLASSIFICATION_TYPE":"U","NORAD_CAT_ID":23429,"ELEMENT_SET_NO":999,"REV_AT_EPOCH":11485,"BSTAR":0,"MEAN_MOTION_DOT":-5.6e-7,"MEAN_MOTION_DDOT":0},{"OBJECT_NAME":"RADUGA 32","OBJECT_ID":"1994-087A","EPOCH":"2026-03-05T19:46:13.329696","MEAN_MOTION":1.0027778,"ECCENTRICITY":0.00087032,"INCLINATION":14.3352,"RA_OF_ASC_NODE":351.7555,"ARG_OF_PERICENTER":269.6707,"MEAN_ANOMALY":278.3598,"EPHEMERIS_TYPE":0,"CLASSIFICATION_TYPE":"U","NORAD_CAT_ID":23448,"ELEMENT_SET_NO":999,"REV_AT_EPOCH":13184,"BSTAR":0,"MEAN_MOTION_DOT":-1.59e-6,"MEAN_MOTION_DDOT":0},{"OBJECT_NAME":"SL-12 R/B(2)","OBJECT_ID":"1994-087D","EPOCH":"2026-03-05T21:06:22.118688","MEAN_MOTION":1.00059922,"ECCENTRICITY":0.00080425,"INCLINATION":14.3569,"RA_OF_ASC_NODE":351.7686,"ARG_OF_PERICENTER":136.7398,"MEAN_ANOMALY":46.9076,"EPHEMERIS_TYPE":0,"CLASSIFICATION_TYPE":"U","NORAD_CAT_ID":23451,"ELEMENT_SET_NO":999,"REV_AT_EPOCH":4624,"BSTAR":0,"MEAN_MOTION_DOT":7.7e-7,"MEAN_MOTION_DDOT":0},{"OBJECT_NAME":"UFO 4 (USA 108)","OBJECT_ID":"1995-003A","EPOCH":"2026-03-06T02:47:46.872672","MEAN_MOTION":1.00273177,"ECCENTRICITY":0.00035922,"INCLINATION":9.6727,"RA_OF_ASC_NODE":13.5636,"ARG_OF_PERICENTER":333.1514,"MEAN_ANOMALY":31.3587,"EPHEMERIS_TYPE":0,"CLASSIFICATION_TYPE":"U","NORAD_CAT_ID":23467,"ELEMENT_SET_NO":999,"REV_AT_EPOCH":11392,"BSTAR":0,"MEAN_MOTION_DOT":-2.5e-7,"MEAN_MOTION_DDOT":0},{"OBJECT_NAME":"HIMAWARI-5 AKM","OBJECT_ID":"1995-011D","EPOCH":"2026-03-05T09:50:34.190016","MEAN_MOTION":1.01255612,"ECCENTRICITY":0.0220797,"INCLINATION":13.6512,"RA_OF_ASC_NODE":348.9919,"ARG_OF_PERICENTER":12.119,"MEAN_ANOMALY":154.6892,"EPHEMERIS_TYPE":0,"CLASSIFICATION_TYPE":"U","NORAD_CAT_ID":23524,"ELEMENT_SET_NO":999,"REV_AT_EPOCH":4603,"BSTAR":0,"MEAN_MOTION_DOT":-5.0e-8,"MEAN_MOTION_DDOT":0},{"OBJECT_NAME":"TITAN 4 CENTAUR R/B","OBJECT_ID":"1995-022B","EPOCH":"2026-03-05T23:09:03.058272","MEAN_MOTION":1.00552517,"ECCENTRICITY":0.00098504,"INCLINATION":18.2464,"RA_OF_ASC_NODE":7.2066,"ARG_OF_PERICENTER":337.3901,"MEAN_ANOMALY":22.5547,"EPHEMERIS_TYPE":0,"CLASSIFICATION_TYPE":"U","NORAD_CAT_ID":23568,"ELEMENT_SET_NO":999,"REV_AT_EPOCH":2486,"BSTAR":0,"MEAN_MOTION_DOT":5.7e-7,"MEAN_MOTION_DDOT":0},{"OBJECT_NAME":"SL-6 R/B(2)","OBJECT_ID":"1995-026D","EPOCH":"2026-03-05T19:05:23.715168","MEAN_MOTION":2.03321142,"ECCENTRICITY":0.64607211,"INCLINATION":66.6569,"RA_OF_ASC_NODE":213.6172,"ARG_OF_PERICENTER":33.8247,"MEAN_ANOMALY":354.0405,"EPHEMERIS_TYPE":0,"CLASSIFICATION_TYPE":"U","NORAD_CAT_ID":23587,"ELEMENT_SET_NO":999,"REV_AT_EPOCH":22848,"BSTAR":0,"MEAN_MOTION_DOT":-5.37e-6,"MEAN_MOTION_DDOT":0},{"OBJECT_NAME":"TDRS 7","OBJECT_ID":"1995-035B","EPOCH":"2026-03-05T16:49:48.614304","MEAN_MOTION":1.00276158,"ECCENTRICITY":0.0008223,"INCLINATION":13.42,"RA_OF_ASC_NODE":348.8997,"ARG_OF_PERICENTER":47.6107,"MEAN_ANOMALY":108.4062,"EPHEMERIS_TYPE":0,"CLASSIFICATION_TYPE":"U","NORAD_CAT_ID":23613,"ELEMENT_SET_NO":999,"REV_AT_EPOCH":11221,"BSTAR":0,"MEAN_MOTION_DOT":-2.43e-6,"MEAN_MOTION_DDOT":0},{"OBJECT_NAME":"IUS R/B(2)","OBJECT_ID":"1995-035D","EPOCH":"2026-03-02T14:30:38.559744","MEAN_MOTION":1.00484128,"ECCENTRICITY":0.0009001,"INCLINATION":15.7347,"RA_OF_ASC_NODE":342.6195,"ARG_OF_PERICENTER":182.9056,"MEAN_ANOMALY":40.1702,"EPHEMERIS_TYPE":0,"CLASSIFICATION_TYPE":"U","NORAD_CAT_ID":23615,"ELEMENT_SET_NO":999,"REV_AT_EPOCH":11233,"BSTAR":0,"MEAN_MOTION_DOT":7.3e-7,"MEAN_MOTION_DDOT":0},{"OBJECT_NAME":"TITAN 34D TRANSTAGE DEB","OBJECT_ID":"1988-077N","EPOCH":"2026-03-04T08:46:33.119904","MEAN_MOTION":2.01464767,"ECCENTRICITY":0.7348605,"INCLINATION":26.5609,"RA_OF_ASC_NODE":172.0977,"ARG_OF_PERICENTER":179.3544,"MEAN_ANOMALY":182.9806,"EPHEMERIS_TYPE":0,"CLASSIFICATION_TYPE":"U","NORAD_CAT_ID":23619,"ELEMENT_SET_NO":999,"REV_AT_EPOCH":840,"BSTAR":0.007807,"MEAN_MOTION_DOT":-3.8e-7,"MEAN_MOTION_DDOT":0},{"OBJECT_NAME":"ARIANE 42L+3 R/B","OBJECT_ID":"1995-040B","EPOCH":"2026-03-05T17:14:57.903072","MEAN_MOTION":2.18803536,"ECCENTRICITY":0.72099657,"INCLINATION":4.8,"RA_OF_ASC_NODE":13.1016,"ARG_OF_PERICENTER":299.3323,"MEAN_ANOMALY":322.1618,"EPHEMERIS_TYPE":0,"CLASSIFICATION_TYPE":"U","NORAD_CAT_ID":23637,"ELEMENT_SET_NO":999,"REV_AT_EPOCH":24431,"BSTAR":0.0010978003,"MEAN_MOTION_DOT":-6.8e-7,"MEAN_MOTION_DDOT":0},{"OBJECT_NAME":"KOREASAT 1","OBJECT_ID":"1995-041A","EPOCH":"2026-03-05T13:11:16.329120","MEAN_MOTION":0.99672266,"ECCENTRICITY":0.0005453,"INCLINATION":14.7055,"RA_OF_ASC_NODE":359.4033,"ARG_OF_PERICENTER":304.3962,"MEAN_ANOMALY":247.6383,"EPHEMERIS_TYPE":0,"CLASSIFICATION_TYPE":"U","NORAD_CAT_ID":23639,"ELEMENT_SET_NO":999,"REV_AT_EPOCH":11149,"BSTAR":0,"MEAN_MOTION_DOT":-1.7e-7,"MEAN_MOTION_DDOT":0},{"OBJECT_NAME":"MOLNIYA 3-47","OBJECT_ID":"1995-042A","EPOCH":"2026-02-22T15:17:14.497440","MEAN_MOTION":2.01977663,"ECCENTRICITY":0.67500844,"INCLINATION":64.9301,"RA_OF_ASC_NODE":280.341,"ARG_OF_PERICENTER":270.8113,"MEAN_ANOMALY":18.7209,"EPHEMERIS_TYPE":0,"CLASSIFICATION_TYPE":"U","NORAD_CAT_ID":23642,"ELEMENT_SET_NO":999,"REV_AT_EPOCH":22420,"BSTAR":0,"MEAN_MOTION_DOT":-7.57e-6,"MEAN_MOTION_DDOT":0},{"OBJECT_NAME":"SL-6 R/B(2)","OBJECT_ID":"1995-042D","EPOCH":"2026-02-28T15:54:29.859840","MEAN_MOTION":1.99222977,"ECCENTRICITY":0.70380635,"INCLINATION":64.8654,"RA_OF_ASC_NODE":326.9177,"ARG_OF_PERICENTER":272.1884,"MEAN_ANOMALY":16.0008,"EPHEMERIS_TYPE":0,"CLASSIFICATION_TYPE":"U","NORAD_CAT_ID":23645,"ELEMENT_SET_NO":999,"REV_AT_EPOCH":21976,"BSTAR":0,"MEAN_MOTION_DOT":-1.21e-5,"MEAN_MOTION_DDOT":0}]
